[{"OBJECT_NAME":"TWILIGHT-1 OBJECT D","OBJECT_ID":"2026-004D","EPOCH":"2026-03-09T22:29:50.113248","MEAN_MOTION":14.87523301,"ECCENTRICITY":0.00105116,"INCLINATION":97.8027,"RA_OF_ASC_NODE":69.0991,"ARG_OF_PERICENTER":100.1958,"MEAN_ANOMALY":260.0444,"EPHEMERIS_TYPE":0,"CLASSIFICATION_TYPE":"U","NORAD_CAT_ID":67366,"ELEMENT_SET_NO":999,"REV_AT_EPOCH":853,"BSTAR":0.00074325575,"MEAN_MOTION_DOT":6.698e-5,"MEAN_MOTION_DDOT":0},{"OBJECT_NAME":"CZ-2C DEB","OBJECT_ID":"2013-035C","EPOCH":"2026-03-09T23:28:11.376480","MEAN_MOTION":14.97090669,"ECCENTRICITY":0.00414021,"INCLINATION":98.2221,"RA_OF_ASC_NODE":340.898,"ARG_OF_PERICENTER":245.2603,"MEAN_ANOMALY":114.4306,"EPHEMERIS_TYPE":0,"CLASSIFICATION_TYPE":"U","NORAD_CAT_ID":39204,"ELEMENT_SET_NO":999,"REV_AT_EPOCH":67473,"BSTAR":0.0018072367,"MEAN_MOTION_DOT":0.00021197,"MEAN_MOTION_DDOT":0}]
